{
  "type": "FeatureCollection",
  "features": [
    {
      "type": "Feature",
      "properties": {
        "norad_id": 34350,
        "name": "IRIDIUM 33 DEB",
        "group": "iridium-33-debris",
        "lat": -81.5909097376983,
        "lon": -22.180288604641994,
        "alt_km": 759.9946030791543,
        "timestamp": "2025-12-10T23:33:13.203115+00:00",
        "meta_object_name": "IRIDIUM 33 DEB",
        "meta_object_id": "1997-051ES",
        "meta_epoch": "2025-12-10T12:52:02.617824",
        "meta_mean_motion": 14.45379057,
        "meta_eccentricity": 0.00226247,
        "meta_inclination": 86.3276,
        "meta_ra_of_asc_node": 3.7635,
        "meta_arg_of_pericenter": 142.0341,
        "meta_mean_anomaly": 339.995,
        "meta_ephemeris_type": 0,
        "meta_classification_type": "U",
        "meta_norad_cat_id": 34350,
        "meta_element_set_no": 999,
        "meta_rev_at_epoch": 88261,
        "meta_bstar": 0.00047544154,
        "meta_mean_motion_dot": 1.696e-05,
        "meta_mean_motion_ddot": 0,
        "tle_line1": "1 34350U 97051ES  25344.53614141  .00001696  00000+0  47544-3 0  9998",
        "tle_line2": "2 34350  86.3276   3.7635 0022624 142.0341 339.9950 14.45379057882612"
      },
      "geometry": {
        "type": "Point",
        "coordinates": [
          -22.180288604641994,
          -81.5909097376983
        ]
      }
    },
    {
      "type": "Feature",
      "properties": {
        "norad_id": 34366,
        "name": "IRIDIUM 33 DEB",
        "group": "iridium-33-debris",
        "lat": -10.892233854258013,
        "lon": -129.22203036285038,
        "alt_km": 705.8361202027918,
        "timestamp": "2025-12-10T23:33:13.203125+00:00",
        "meta_object_name": "IRIDIUM 33 DEB",
        "meta_object_id": "1997-051FJ",
        "meta_epoch": "2025-12-10T04:47:12.333120",
        "meta_mean_motion": 14.54021911,
        "meta_eccentricity": 0.0022308,
        "meta_inclination": 86.3691,
        "meta_ra_of_asc_node": 50.4179,
        "meta_arg_of_pericenter": 147.6537,
        "meta_mean_anomaly": 272.451,
        "meta_ephemeris_type": 0,
        "meta_classification_type": "U",
        "meta_norad_cat_id": 34366,
        "meta_element_set_no": 999,
        "meta_rev_at_epoch": 88145,
        "meta_bstar": 0.0016468,
        "meta_mean_motion_dot": 6.988e-05,
        "meta_mean_motion_ddot": 0,
        "tle_line1": "1 34366U 97051FJ  25344.19944830  .00006988  00000+0  16468-2 0  9997",
        "tle_line2": "2 34366  86.3691  50.4179 0022308 147.6537 272.4510 14.54021911881456"
      },
      "geometry": {
        "type": "Point",
        "coordinates": [
          -129.22203036285038,
          -10.892233854258013
        ]
      }
    },
    {
      "type": "Feature",
      "properties": {
        "norad_id": 34375,
        "name": "IRIDIUM 33 DEB",
        "group": "iridium-33-debris",
        "lat": -26.810845080227043,
        "lon": -178.39951192546957,
        "alt_km": 907.2683228966016,
        "timestamp": "2025-12-10T23:33:13.203134+00:00",
        "meta_object_name": "IRIDIUM 33 DEB",
        "meta_object_id": "1997-051FT",
        "meta_epoch": "2025-12-10T07:35:27.786048",
        "meta_mean_motion": 14.17985501,
        "meta_eccentricity": 0.0103124,
        "meta_inclination": 86.4328,
        "meta_ra_of_asc_node": 183.6751,
        "meta_arg_of_pericenter": 134.3251,
        "meta_mean_anomaly": 46.2443,
        "meta_ephemeris_type": 0,
        "meta_classification_type": "U",
        "meta_norad_cat_id": 34375,
        "meta_element_set_no": 999,
        "meta_rev_at_epoch": 86677,
        "meta_bstar": 0.00060254,
        "meta_mean_motion_dot": 1.319e-05,
        "meta_mean_motion_ddot": 0,
        "tle_line1": "1 34375U 97051FT  25344.31629382  .00001319  00000+0  60254-3 0  9999",
        "tle_line2": "2 34375  86.4328 183.6751 0103124 134.3251  46.2443 14.17985501866774"
      },
      "geometry": {
        "type": "Point",
        "coordinates": [
          -178.39951192546957,
          -26.810845080227043
        ]
      }
    },
    {
      "type": "Feature",
      "properties": {
        "norad_id": 34376,
        "name": "IRIDIUM 33 DEB",
        "group": "iridium-33-debris",
        "lat": 63.782023213456974,
        "lon": 14.883215395814986,
        "alt_km": 684.8812908664231,
        "timestamp": "2025-12-10T23:33:13.203143+00:00",
        "meta_object_name": "IRIDIUM 33 DEB",
        "meta_object_id": "1997-051FU",
        "meta_epoch": "2025-12-10T11:45:58.663584",
        "meta_mean_motion": 14.62514696,
        "meta_eccentricity": 0.00269271,
        "meta_inclination": 86.2989,
        "meta_ra_of_asc_node": 7.5509,
        "meta_arg_of_pericenter": 174.2059,
        "meta_mean_anomaly": 185.9469,
        "meta_ephemeris_type": 0,
        "meta_classification_type": "U",
        "meta_norad_cat_id": 34376,
        "meta_element_set_no": 999,
        "meta_rev_at_epoch": 87974,
        "meta_bstar": 0.0021547736,
        "meta_mean_motion_dot": 0.0001101,
        "meta_mean_motion_ddot": 0,
        "tle_line1": "1 34376U 97051FU  25344.49026231  .00011010  00000+0  21548-2 0  9994",
        "tle_line2": "2 34376  86.2989   7.5509 0026927 174.2059 185.9469 14.62514696879748"
      },
      "geometry": {
        "type": "Point",
        "coordinates": [
          14.883215395814986,
          63.782023213456974
        ]
      }
    },
    {
      "type": "Feature",
      "properties": {
        "norad_id": 34486,
        "name": "IRIDIUM 33 DEB",
        "group": "iridium-33-debris",
        "lat": 70.68789415546222,
        "lon": 23.203868722672546,
        "alt_km": 567.1982421116454,
        "timestamp": "2025-12-10T23:33:13.203153+00:00",
        "meta_object_name": "IRIDIUM 33 DEB",
        "meta_object_id": "1997-051GB",
        "meta_epoch": "2025-12-10T12:34:52.076640",
        "meta_mean_motion": 14.95631974,
        "meta_eccentricity": 0.00134896,
        "meta_inclination": 86.3938,
        "meta_ra_of_asc_node": 13.0469,
        "meta_arg_of_pericenter": 119.9859,
        "meta_mean_anomaly": 11.1663,
        "meta_ephemeris_type": 0,
        "meta_classification_type": "U",
        "meta_norad_cat_id": 34486,
        "meta_element_set_no": 999,
        "meta_rev_at_epoch": 88953,
        "meta_bstar": 0.0031930379,
        "meta_mean_motion_dot": 0.00035691,
        "meta_mean_motion_ddot": 0,
        "tle_line1": "1 34486U 97051GB  25344.52421385  .00035691  00000+0  31930-2 0  9996",
        "tle_line2": "2 34486  86.3938  13.0469 0013489 119.9859  11.1663 14.95631974889534"
      },
      "geometry": {
        "type": "Point",
        "coordinates": [
          23.203868722672546,
          70.68789415546222
        ]
      }
    },
    {
      "type": "Feature",
      "properties": {
        "norad_id": 34487,
        "name": "IRIDIUM 33 DEB",
        "group": "iridium-33-debris",
        "lat": 57.91423463495937,
        "lon": 18.988440581438166,
        "alt_km": 736.5730812786278,
        "timestamp": "2025-12-10T23:33:13.203162+00:00",
        "meta_object_name": "IRIDIUM 33 DEB",
        "meta_object_id": "1997-051GC",
        "meta_epoch": "2025-12-10T01:47:16.386144",
        "meta_mean_motion": 14.4321077,
        "meta_eccentricity": 0.00325626,
        "meta_inclination": 86.3436,
        "meta_ra_of_asc_node": 13.5248,
        "meta_arg_of_pericenter": 136.7627,
        "meta_mean_anomaly": 252.8644,
        "meta_ephemeris_type": 0,
        "meta_classification_type": "U",
        "meta_norad_cat_id": 34487,
        "meta_element_set_no": 999,
        "meta_rev_at_epoch": 88210,
        "meta_bstar": 0.00027422216,
        "meta_mean_motion_dot": 9.48e-06,
        "meta_mean_motion_ddot": 0,
        "tle_line1": "1 34487U 97051GC  25344.07449521  .00000948  00000+0  27422-3 0  9998",
        "tle_line2": "2 34487  86.3436  13.5248 0032562 136.7627 252.8644 14.43210770882100"
      },
      "geometry": {
        "type": "Point",
        "coordinates": [
          18.988440581438166,
          57.91423463495937
        ]
      }
    },
    {
      "type": "Feature",
      "properties": {
        "norad_id": 34488,
        "name": "IRIDIUM 33 DEB",
        "group": "iridium-33-debris",
        "lat": -23.85715516227472,
        "lon": 128.31294501985815,
        "alt_km": 493.5358751032727,
        "timestamp": "2025-12-10T23:33:13.203172+00:00",
        "meta_object_name": "IRIDIUM 33 DEB",
        "meta_object_id": "1997-051GD",
        "meta_epoch": "2025-12-10T14:48:36.946656",
        "meta_mean_motion": 15.28578771,
        "meta_eccentricity": 0.00138013,
        "meta_inclination": 86.3253,
        "meta_ra_of_asc_node": 306.8644,
        "meta_arg_of_pericenter": 55.1759,
        "meta_mean_anomaly": 305.0785,
        "meta_ephemeris_type": 0,
        "meta_classification_type": "U",
        "meta_norad_cat_id": 34488,
        "meta_element_set_no": 999,
        "meta_rev_at_epoch": 89207,
        "meta_bstar": 0.0066251858,
        "meta_mean_motion_dot": 0.00188937,
        "meta_mean_motion_ddot": 0,
        "tle_line1": "1 34488U 97051GD  25344.61709429  .00188937  00000+0  66252-2 0  9993",
        "tle_line2": "2 34488  86.3253 306.8644 0013801  55.1759 305.0785 15.28578771892077"
      },
      "geometry": {
        "type": "Point",
        "coordinates": [
          128.31294501985815,
          -23.85715516227472
        ]
      }
    }
  ]
}